{
  "type": "FeatureCollection",
  "features": [
    {
      "type": "Feature",
      "properties": {
        "norad_id": 39773,
        "name": "EUTELSAT 3B",
        "group": "eutelsat",
        "lat": -0.015546425406799859,
        "lon": -15.899095457734377,
        "alt_km": 35794.80922582582,
        "timestamp": "2025-12-04T17:48:39.844500+00:00",
        "meta_object_name": "EUTELSAT 3B",
        "meta_object_id": "2014-030A",
        "meta_epoch": "2025-12-04T05:10:49.325088",
        "meta_mean_motion": 1.00270965,
        "meta_eccentricity": 0.00047767,
        "meta_inclination": 0.0636,
        "meta_ra_of_asc_node": 4.0806,
        "meta_arg_of_pericenter": 224.8213,
        "meta_mean_anomaly": 285.1915,
        "meta_ephemeris_type": 0,
        "meta_classification_type": "U",
        "meta_norad_cat_id": 39773,
        "meta_element_set_no": 999,
        "meta_rev_at_epoch": 4211,
        "meta_bstar": 0,
        "meta_mean_motion_dot": 3.6e-07,
        "meta_mean_motion_ddot": 0,
        "tle_line1": "1 39773U 14030A   25338.21584867  .00000036  00000+0  00000+0 0  9996",
        "tle_line2": "2 39773   0.0636   4.0806 0004776 224.8213 285.1915  1.00270965 42119"
      },
      "geometry": {
        "type": "Point",
        "coordinates": [
          -15.899095457734377,
          -0.015546425406799859
        ]
      }
    },
    {
      "type": "Feature",
      "properties": {
        "norad_id": 40425,
        "name": "EUTELSAT 115 WEST B",
        "group": "eutelsat",
        "lat": 0.013432441282569317,
        "lon": -133.9206423400998,
        "alt_km": 35787.58781092036,
        "timestamp": "2025-12-04T17:48:39.844512+00:00",
        "meta_object_name": "EUTELSAT 115 WEST B",
        "meta_object_id": "2015-010B",
        "meta_epoch": "2025-12-04T06:19:51.176928",
        "meta_mean_motion": 1.0027368,
        "meta_eccentricity": 4.932e-05,
        "meta_inclination": 0.0127,
        "meta_ra_of_asc_node": 145.1164,
        "meta_arg_of_pericenter": 271.4317,
        "meta_mean_anomaly": 356.8728,
        "meta_ephemeris_type": 0,
        "meta_classification_type": "U",
        "meta_norad_cat_id": 40425,
        "meta_element_set_no": 999,
        "meta_rev_at_epoch": 3943,
        "meta_bstar": 0,
        "meta_mean_motion_dot": -1e-07,
        "meta_mean_motion_ddot": 0,
        "tle_line1": "1 40425U 15010B   25338.26378677 -.00000010  00000+0  00000+0 0  9999",
        "tle_line2": "2 40425   0.0127 145.1164 0000493 271.4317 356.8728  1.00273680 39435"
      },
      "geometry": {
        "type": "Point",
        "coordinates": [
          -133.9206423400998,
          0.013432441282569317
        ]
      }
    },
    {
      "type": "Feature",
      "properties": {
        "norad_id": 40875,
        "name": "EUTELSAT 8 WEST B",
        "group": "eutelsat",
        "lat": -0.015903798339788847,
        "lon": -26.987983581316076,
        "alt_km": 35782.30646175045,
        "timestamp": "2025-12-04T17:48:39.844524+00:00",
        "meta_object_name": "EUTELSAT 8 WEST B",
        "meta_object_id": "2015-039B",
        "meta_epoch": "2025-12-04T05:07:42.123936",
        "meta_mean_motion": 1.00271624,
        "meta_eccentricity": 0.00041346,
        "meta_inclination": 0.0653,
        "meta_ra_of_asc_node": 348.9343,
        "meta_arg_of_pericenter": 266.6738,
        "meta_mean_anomaly": 246.6167,
        "meta_ephemeris_type": 0,
        "meta_classification_type": "U",
        "meta_norad_cat_id": 40875,
        "meta_element_set_no": 999,
        "meta_rev_at_epoch": 3770,
        "meta_bstar": 0,
        "meta_mean_motion_dot": -5e-07,
        "meta_mean_motion_ddot": 0,
        "tle_line1": "1 40875U 15039B   25338.21368199 -.00000050  00000+0  00000+0 0  9996",
        "tle_line2": "2 40875   0.0653 348.9343 0004134 266.6738 246.6167  1.00271624 37706"
      },
      "geometry": {
        "type": "Point",
        "coordinates": [
          -26.987983581316076,
          -0.015903798339788847
        ]
      }
    },
    {
      "type": "Feature",
      "properties": {
        "norad_id": 41310,
        "name": "EUTELSAT 9B",
        "group": "eutelsat",
        "lat": -0.05077798590786591,
        "lon": -9.998944595169565,
        "alt_km": 35784.15868856648,
        "timestamp": "2025-12-04T17:48:39.844536+00:00",
        "meta_object_name": "EUTELSAT 9B",
        "meta_object_id": "2016-005A",
        "meta_epoch": "2025-12-04T05:12:26.670240",
        "meta_mean_motion": 1.00271535,
        "meta_eccentricity": 0.00049541,
        "meta_inclination": 0.0679,
        "meta_ra_of_asc_node": 75.3059,
        "meta_arg_of_pericenter": 190.1546,
        "meta_mean_anomaly": 254.9316,
        "meta_ephemeris_type": 0,
        "meta_classification_type": "U",
        "meta_norad_cat_id": 41310,
        "meta_element_set_no": 999,
        "meta_rev_at_epoch": 3616,
        "meta_bstar": 0,
        "meta_mean_motion_dot": 7.8e-07,
        "meta_mean_motion_ddot": 0,
        "tle_line1": "1 41310U 16005A   25338.21697535  .00000078  00000+0  00000+0 0  9993",
        "tle_line2": "2 41310   0.0679  75.3059 0004954 190.1546 254.9316  1.00271535 36160"
      },
      "geometry": {
        "type": "Point",
        "coordinates": [
          -9.998944595169565,
          -0.05077798590786591
        ]
      }
    },
    {
      "type": "Feature",
      "properties": {
        "norad_id": 41382,
        "name": "EUTELSAT 65 WEST A",
        "group": "eutelsat",
        "lat": -0.06732541133346397,
        "lon": -84.23819722230051,
        "alt_km": 35774.972797700764,
        "timestamp": "2025-12-04T17:48:39.844547+00:00",
        "meta_object_name": "EUTELSAT 65 WEST A",
        "meta_object_id": "2016-014A",
        "meta_epoch": "2025-12-04T06:34:04.814976",
        "meta_mean_motion": 1.00270333,
        "meta_eccentricity": 0.00028281,
        "meta_inclination": 0.0496,
        "meta_ra_of_asc_node": 347.1995,
        "meta_arg_of_pericenter": 273.664,
        "meta_mean_anomaly": 205.8051,
        "meta_ephemeris_type": 0,
        "meta_classification_type": "U",
        "meta_norad_cat_id": 41382,
        "meta_element_set_no": 999,
        "meta_rev_at_epoch": 3558,
        "meta_bstar": 0,
        "meta_mean_motion_dot": -2.61e-06,
        "meta_mean_motion_ddot": 0,
        "tle_line1": "1 41382U 16014A   25338.27366684 -.00000261  00000+0  00000+0 0  9991",
        "tle_line2": "2 41382   0.0496 347.1995 0002828 273.6640 205.8051  1.00270333 35586"
      },
      "geometry": {
        "type": "Point",
        "coordinates": [
          -84.23819722230051,
          -0.06732541133346397
        ]
      }
    },
    {
      "type": "Feature",
      "properties": {
        "norad_id": 41589,
        "name": "EUTELSAT 117 WEST B",
        "group": "eutelsat",
        "lat": 0.017343162685336606,
        "lon": -136.04449553052635,
        "alt_km": 35787.14936143402,
        "timestamp": "2025-12-04T17:48:39.844558+00:00",
        "meta_object_name": "EUTELSAT 117 WEST B",
        "meta_object_id": "2016-038B",
        "meta_epoch": "2025-12-04T02:38:16.325088",
        "meta_mean_motion": 1.0026993,
        "meta_eccentricity": 1.619e-05,
        "meta_inclination": 0.0084,
        "meta_ra_of_asc_node": 141.8858,
        "meta_arg_of_pericenter": 294.8653,
        "meta_mean_anomaly": 279.0065,
        "meta_ephemeris_type": 0,
        "meta_classification_type": "U",
        "meta_norad_cat_id": 41589,
        "meta_element_set_no": 999,
        "meta_rev_at_epoch": 3470,
        "meta_bstar": 0,
        "meta_mean_motion_dot": 5e-08,
        "meta_mean_motion_ddot": 0,
        "tle_line1": "1 41589U 16038B   25338.10991117  .00000005  00000+0  00000+0 0  9998",
        "tle_line2": "2 41589   0.0084 141.8858 0000161 294.8653 279.0065  1.00269930 34704"
      },
      "geometry": {
        "type": "Point",
        "coordinates": [
          -136.04449553052635,
          0.017343162685336606
        ]
      }
    },
    {
      "type": "Feature",
      "properties": {
        "norad_id": 42741,
        "name": "EUTELSAT 172B",
        "group": "eutelsat",
        "lat": 0.0009152261357836419,
        "lon": 152.9541114203657,
        "alt_km": 35785.842472005635,
        "timestamp": "2025-12-04T17:48:39.844570+00:00",
        "meta_object_name": "EUTELSAT 172B",
        "meta_object_id": "2017-029B",
        "meta_epoch": "2025-12-04T05:58:59.710080",
        "meta_mean_motion": 1.00271317,
        "meta_eccentricity": 1.593e-05,
        "meta_inclination": 0.0204,
        "meta_ra_of_asc_node": 143.0384,
        "meta_arg_of_pericenter": 68.0801,
        "meta_mean_anomaly": 123.9551,
        "meta_ephemeris_type": 0,
        "meta_classification_type": "U",
        "meta_norad_cat_id": 42741,
        "meta_element_set_no": 999,
        "meta_rev_at_epoch": 3177,
        "meta_bstar": 0,
        "meta_mean_motion_dot": 1e-07,
        "meta_mean_motion_ddot": 0,
        "tle_line1": "1 42741U 17029B   25338.24930220  .00000010  00000+0  00000+0 0  9999",
        "tle_line2": "2 42741   0.0204 143.0384 0000159  68.0801 123.9551  1.00271317 31773"
      },
      "geometry": {
        "type": "Point",
        "coordinates": [
          152.9541114203657,
          0.0009152261357836419
        ]
      }
    }
  ]
}